H1 CPF 01  gfz 2022 12 24 13  8582 tandemx   
H2 1003001  6202 36605    2022 12 24 12 59 42 2022 12 29 00 00 42   120 1 1  0 0 0
H9
10 0 59940  19422.000000  0   -6537772.137  -1319467.905  -1734524.452
10 0 59940  19542.000000  0   -6736682.159  -1174335.723   -846285.051
10 0 59940  19662.000000  0   -6815187.692  -1006264.156     56838.945
10 0 59940  19782.000000  0   -6771489.534   -820301.661    958960.644
10 0 59940  19902.000000  0   -6606037.811   -621827.388   1844195.182
10 0 59940  20022.000000  0   -6321531.079   -416416.510   2696948.647
10 0 59940  20142.000000  0   -5922870.081   -209701.789   3502201.524
10 0 59940  20262.000000  0   -5417066.575     -7234.977   4245780.478
10 0 59940  20382.000000  0   -4813110.140    185647.384   4914611.640
10 0 59940  20502.000000  0   -4121798.043    363951.385   5496950.275
10 0 59940  20622.000000  0   -3355533.146    523143.595   5982584.717
10 0 59940  20742.000000  0   -2528092.395    659255.757   6363011.500
10 0 59940  20862.000000  0   -1654372.457    768974.538   6631578.794
10 0 59940  20982.000000  0    -750116.400    849715.764   6783596.847
10 0 59940  21102.000000  0     168371.601    899680.650   6816413.588
10 0 59940  21222.000000  0    1084519.534    917893.388   6729457.516
10 0 59940  21342.000000  0    1981785.347    904220.157   6524247.155
10 0 59940  21462.000000  0    2843954.629    859368.631   6204366.387
10 0 59940  21582.000000  0    3655434.433    784868.006   5775406.546
10 0 59940  21702.000000  0    4401538.193    683030.141   5244873.541
10 0 59940  21822.000000  0    5068755.640    556891.971   4622062.881
10 0 59940  21942.000000  0    5645005.507    410139.976   3917903.419
10 0 59940  22062.000000  0    6119864.621    247019.708   3144768.640
10 0 59940  22182.000000  0    6484766.503     72231.566   2316258.903
10 0 59940  22302.000000  0    6733164.643   -109186.693   1446960.411
10 0 59940  22422.000000  0    6860658.783   -291985.909    552183.727
10 0 59940  22542.000000  0    6865078.138   -470836.670   -352313.337
10 0 59940  22662.000000  0    6746519.733   -640463.773  -1250612.828
10 0 59940  22782.000000  0    6507340.193   -795779.631  -2126925.463
10 0 59940  22902.000000  0    6152102.159   -932013.074  -2965875.648
10 0 59940  23022.000000  0    5687477.308  -1044830.603  -3752775.731
10 0 59940  23142.000000  0    5122109.042  -1130446.759  -4473884.440
10 0 59940  23262.000000  0    4466439.200  -1185720.710  -5116643.931
10 0 59940  23382.000000  0    3732504.409  -1208237.987  -5669892.449
10 0 59940  23502.000000  0    2933705.633  -1196375.993  -6124049.285
10 0 59940  23622.000000  0    2084557.579  -1149350.905  -6471269.372
10 0 59940  23742.000000  0    1200423.083  -1067245.206  -6705567.646
10 0 59940  23862.000000  0     297236.862   -951017.560  -6822911.862
10 0 59940  23982.000000  0    -608777.261   -802493.373  -6821284.451
10 0 59940  24102.000000  0   -1501390.819   -624336.676  -6700713.148
10 0 59940  24222.000000  0   -2364655.029   -420003.345  -6463270.706
10 0 59940  24342.000000  0   -3183179.108   -193676.641  -6113041.838
10 0 59940  24462.000000  0   -3942399.001     49814.021  -5656061.249
10 0 59940  24582.000000  0   -4628836.509    305090.467  -5100220.665
10 0 59940  24702.000000  0   -5230340.988    566337.052  -4455143.755
10 0 59940  24822.000000  0   -5736311.997    827425.021  -3732031.909
10 0 59940  24942.000000  0   -6137896.871   1082048.091  -2943478.840
10 0 59940  25062.000000  0   -6428157.907   1323865.511  -2103257.354
10 0 59940  25182.000000  0   -6602204.991   1546649.148  -1226081.405
10 0 59940  25302.000000  0   -6657290.724   1744432.462   -327346.767
10 0 59940  25422.000000  0   -6592862.325   1911655.471    577145.663
10 0 59940  25542.000000  0   -6410569.087   2043303.198   1471474.817
10 0 59940  25662.000000  0   -6114226.461   2135034.648   2339888.359
10 0 59940  25782.000000  0   -5709735.875   2183298.052   3167089.321
10 0 59940  25902.000000  0   -5204962.561   2185428.604   3938513.615
10 0 59940  26022.000000  0   -4609574.440   2139726.687   4640591.414
10 0 59940  26142.000000  0   -3934847.997   2045515.379   5260987.051
10 0 59940  26262.000000  0   -3193446.643   1903176.089   5788814.421
10 0 59940  26382.000000  0   -2399175.386   1714162.007   6214825.764
10 0 59940  26502.000000  0   -1566716.113   1480988.004   6531568.746
10 0 59940  26622.000000  0    -711351.213   1207197.610   6733509.998
10 0 59940  26742.000000  0     151318.358    897308.705   6817124.732
10 0 59940  26862.000000  0    1005656.861    556738.368   6780954.202
10 0 59940  26982.000000  0    1836275.979    191708.372   6625629.399
10 0 59940  27102.000000  0    2628310.752   -190867.642   6353861.254
10 0 59940  27222.000000  0    3367686.004   -583514.199   5970397.555
10 0 59940  27342.000000  0    4041369.180   -978338.342   5481944.838
10 0 59940  27462.000000  0    4637604.245  -1367186.935   4897056.785
10 0 59940  27582.000000  0    5146122.858  -1741813.543   4225990.492
10 0 59940  27702.000000  0    5558330.007  -2094051.203   3480531.302
10 0 59940  27822.000000  0    5867458.442  -2415988.839   2673787.271
10 0 59940  27942.000000  0    6068687.181  -2700146.388   1819957.401
10 0 59940  28062.000000  0    6159222.749  -2939643.838    934078.630
10 0 59940  28182.000000  0    6138340.707  -3128361.155     31754.079
10 0 59940  28302.000000  0    6007384.202  -3261083.676   -871129.947
10 0 59940  28422.000000  0    5769721.285  -3333629.817  -1758693.606
10 0 59940  28542.000000  0    5430659.571  -3342956.707  -2615350.882
10 0 59940  28662.000000  0    4997324.596  -3287242.661  -3426088.784
10 0 59940  28782.000000  0    4478503.172  -3165944.209  -4176733.359
10 0 59940  28902.000000  0    3884456.955  -2979827.233  -4854196.869
10 0 59940  29022.000000  0    3226710.211  -2730970.351  -5446701.424
10 0 59940  29142.000000  0    2517819.427  -2422742.153  -5943974.306
10 0 59940  29262.000000  0    1771130.930  -2059754.814  -6337415.657
10 0 59940  29382.000000  0    1000528.308  -1647792.852  -6620237.934
10 0 59940  29502.000000  0     220174.871  -1193718.426  -6787571.874
10 0 59940  29622.000000  0    -555742.601   -705357.274  -6836540.748
10 0 59940  29742.000000  0   -1313265.621   -191366.153  -6766303.770
10 0 59940  29862.000000  0   -2038909.409    338917.064  -6578068.760
10 0 59940  29982.000000  0   -2719897.189    875638.522  -6275072.827
10 0 59940  30102.000000  0   -3344380.358   1408606.436  -5862533.037
10 0 59940  30222.000000  0   -3901643.302   1927479.889  -5347567.037
10 0 59940  30342.000000  0   -4382290.451   2421966.257  -4739082.223
10 0 59940  30462.000000  0   -4778410.194   2882024.313  -4047632.212
10 0 59940  30582.000000  0   -5083711.949   3298067.189  -3285243.491
10 0 59940  30702.000000  0   -5293635.189   3661162.860  -2465214.925
10 0 59940  30822.000000  0   -5405425.847   3963227.529  -1601889.848
10 0 59940  30942.000000  0   -5418178.544   4197205.958   -710405.769
10 0 59940  31062.000000  0   -5332842.345   4357234.557    193574.607
10 0 59940  31182.000000  0   -5152189.212   4438783.307   1094145.720
10 0 59940  31302.000000  0   -4880743.988   4438770.296   1975448.684
10 0 59940  31422.000000  0   -4524678.804   4355646.915   2821959.570
10 0 59940  31542.000000  0   -4091674.564   4189452.749   3618770.683
10 0 59940  31662.000000  0   -3590753.402   3941837.356   4351859.245
10 0 59940  31782.000000  0   -3032087.257   3616049.009   5008337.435
10 0 59940  31902.000000  0   -2426786.398   3216890.951   5576679.783
10 0 59940  32022.000000  0   -1786673.300   2750646.792   6046923.168
10 0 59940  32142.000000  0   -1124047.028   2224976.756   6410836.765
10 0 59940  32262.000000  0    -451444.152   1648786.940   6662058.492
10 0 59940  32382.000000  0     218597.886   1032075.958   6796200.244
10 0 59940  32502.000000  0     873774.479    385759.882   6810919.887
10 0 59940  32622.000000  0    1502238.784   -278520.526   6705959.198
10 0 59940  32742.000000  0    2092815.018   -948608.771   6483148.931
10 0 59940  32862.000000  0    2635196.971  -1612054.526   6146379.147
10 0 59940  32982.000000  0    3120129.627  -2256344.490   5701536.579
10 0 59940  33102.000000  0    3539570.178  -2869139.507   5156407.004
10 0 59940  33222.000000  0    3886825.336  -3438512.848   4520545.085
10 0 59940  33342.000000  0    4156662.811  -3953185.996   3805111.876
10 0 59940  33462.000000  0    4345394.236  -4402756.839   3022681.825
10 0 59940  33582.000000  0    4450927.701  -4777915.100   2187022.161
10 0 59940  33702.000000  0    4472788.205  -5070639.137   1312847.457
10 0 59940  33822.000000  0    4412104.499  -5274369.384    415554.786
10 0 59940  33942.000000  0    4271562.588  -5384153.352   -489054.840
10 0 59940  34062.000000  0    4055329.093  -5396759.963  -1385062.752
10 0 59940  34182.000000  0    3768943.442  -5310758.925  -2256722.319
10 0 59940  34302.000000  0    3419183.180  -5126562.867  -3088742.448
10 0 59940  34422.000000  0    3013906.473  -4846432.166  -3866560.746
10 0 59940  34542.000000  0    2561875.058  -4474443.280  -4576599.381
10 0 59940  34662.000000  0    2072563.002  -4016421.425  -5206499.475
10 0 59940  34782.000000  0    1555957.147  -3479839.418  -5745328.608
10 0 59940  34902.000000  0    1022353.783  -2873688.398  -6183760.247
10 0 59940  35022.000000  0     482154.517  -2208322.170  -6514224.770
10 0 59940  35142.000000  0     -54334.335  -1495276.900  -6731029.315
10 0 59940  35262.000000  0    -577094.077   -747070.511  -6830445.506
10 0 59940  35382.000000  0   -1076575.345     23014.375  -6810766.147
10 0 59940  35502.000000  0   -1543868.373    801160.783  -6672330.517
10 0 59940  35622.000000  0   -1970858.189   1573258.725  -6417518.958
10 0 59940  35742.000000  0   -2350362.274   2325154.587  -6050716.329
10 0 59940  35862.000000  0   -2676250.834   3042905.271  -5578245.786
99
